GLOBALSTAR M057         
1 25943U 99058A   25345.60726418 -.00000048  00000+0  40518-3 0  9990
2 25943  51.9963 204.6842 0003205  34.2565 325.8491 12.24831832188675
GLOBALSTAR M059         
1 25944U 99058B   25345.58493034 -.00000061  00000+0  31350-3 0  9992
2 25944  52.0027  87.2487 0000600 116.8563 256.1482 11.99988214595340
GLOBALSTAR M056         
1 25945U 99058C   25345.54162303 -.00000137  00000+0 -57559-3 0  9995
2 25945  51.9972  84.7797 0001509 154.3257 218.7814 12.04781237184003
GLOBALSTAR M031         
1 25946U 99058D   25345.20388568 -.00000072  00000+0  18433-3 0  9997
2 25946  51.9981 327.4289 0001143 171.9564 201.1580 12.16044445186089
GLOBALSTAR M039         
1 25961U 99062A   25345.60702050 -.00000053  00000+0  28121-3 0  9993
2 25961  51.9848  88.3222 0002607  39.2843 320.8212 12.62339052202622
GLOBALSTAR M034         
1 25962U 99062B   25345.52103074 -.00000054  00000+0  42252-3 0  9998
2 25962  51.9884 270.4203 0014970  18.4129 152.5863 11.79453429159319
GLOBALSTAR M029         
1 25963U 99062C   25345.38729421 -.00000051  00000+0  43891-3 0  9990
2 25963  51.9833 335.6693 0002557 101.3003  45.1215 11.99904008190399
GLOBALSTAR M061         
1 25964U 99062D   25345.63623728 -.00000095  00000+0 -24067-3 0  9995
2 25964  51.9793  96.5087 0005008 298.0899  74.6462 11.76778133142072
